<?xml version="1.0" encoding="UTF-8"?>
<ndm xmlns:xsi="http://www.w3.org/2001/XMLSchema-instance" xsi:noNamespaceSchemaLocation="https://sanaregistry.org/r/ndmxml_unqualified/ndmxml-2.0.0-master-2.0.xsd">
<omm id="CCSDS_OMM_VERS" version="2.0">
<header><CREATION_DATE/><ORIGINATOR/></header><body><segment><metadata><OBJECT_NAME>ORBCOMM FM20</OBJECT_NAME><OBJECT_ID>1998-046D</OBJECT_ID><CENTER_NAME>EARTH</CENTER_NAME><REF_FRAME>TEME</REF_FRAME><TIME_SYSTEM>UTC</TIME_SYSTEM><MEAN_ELEMENT_THEORY>SGP4</MEAN_ELEMENT_THEORY></metadata><data><meanElements><EPOCH>2025-10-12T05:41:51.231264</EPOCH><MEAN_MOTION>14.37468124</MEAN_MOTION><ECCENTRICITY>.00024678</ECCENTRICITY><INCLINATION>44.9956</INCLINATION><RA_OF_ASC_NODE>346.8589</RA_OF_ASC_NODE><ARG_OF_PERICENTER>224.5581</ARG_OF_PERICENTER><MEAN_ANOMALY>135.5069</MEAN_ANOMALY></meanElements><tleParameters><EPHEMERIS_TYPE>0</EPHEMERIS_TYPE><CLASSIFICATION_TYPE>U</CLASSIFICATION_TYPE><NORAD_CAT_ID>25416</NORAD_CAT_ID><ELEMENT_SET_NO>999</ELEMENT_SET_NO><REV_AT_EPOCH>42110</REV_AT_EPOCH><BSTAR>.46916215E-3</BSTAR><MEAN_MOTION_DOT>.1275E-4</MEAN_MOTION_DOT><MEAN_MOTION_DDOT>0</MEAN_MOTION_DDOT></tleParameters></data></segment></body></omm>
<omm id="CCSDS_OMM_VERS" version="2.0">
<header><CREATION_DATE/><ORIGINATOR/></header><body><segment><metadata><OBJECT_NAME>ORBCOMM FM16</OBJECT_NAME><OBJECT_ID>1998-046E</OBJECT_ID><CENTER_NAME>EARTH</CENTER_NAME><REF_FRAME>TEME</REF_FRAME><TIME_SYSTEM>UTC</TIME_SYSTEM><MEAN_ELEMENT_THEORY>SGP4</MEAN_ELEMENT_THEORY></metadata><data><meanElements><EPOCH>2025-10-12T07:12:00.363744</EPOCH><MEAN_MOTION>14.39263940</MEAN_MOTION><ECCENTRICITY>.00053481</ECCENTRICITY><INCLINATION>44.9949</INCLINATION><RA_OF_ASC_NODE>336.5626</RA_OF_ASC_NODE><ARG_OF_PERICENTER>195.6181</ARG_OF_PERICENTER><MEAN_ANOMALY>164.4504</MEAN_ANOMALY></meanElements><tleParameters><EPHEMERIS_TYPE>0</EPHEMERIS_TYPE><CLASSIFICATION_TYPE>U</CLASSIFICATION_TYPE><NORAD_CAT_ID>25417</NORAD_CAT_ID><ELEMENT_SET_NO>999</ELEMENT_SET_NO><REV_AT_EPOCH>42112</REV_AT_EPOCH><BSTAR>.5523649E-3</BSTAR><MEAN_MOTION_DOT>.1588E-4</MEAN_MOTION_DOT><MEAN_MOTION_DDOT>0</MEAN_MOTION_DDOT></tleParameters></data></segment></body></omm>
<omm id="CCSDS_OMM_VERS" version="2.0">
<header><CREATION_DATE/><ORIGINATOR/></header><body><segment><metadata><OBJECT_NAME>ORBCOMM FM15</OBJECT_NAME><OBJECT_ID>1998-046F</OBJECT_ID><CENTER_NAME>EARTH</CENTER_NAME><REF_FRAME>TEME</REF_FRAME><TIME_SYSTEM>UTC</TIME_SYSTEM><MEAN_ELEMENT_THEORY>SGP4</MEAN_ELEMENT_THEORY></metadata><data><meanElements><EPOCH>2025-10-11T21:19:56.016192</EPOCH><MEAN_MOTION>14.38896343</MEAN_MOTION><ECCENTRICITY>.00050961</ECCENTRICITY><INCLINATION>44.9983</INCLINATION><RA_OF_ASC_NODE>344.0132</RA_OF_ASC_NODE><ARG_OF_PERICENTER>193.9719</ARG_OF_PERICENTER><MEAN_ANOMALY>166.0989</MEAN_ANOMALY></meanElements><tleParameters><EPHEMERIS_TYPE>0</EPHEMERIS_TYPE><CLASSIFICATION_TYPE>U</CLASSIFICATION_TYPE><NORAD_CAT_ID>25418</NORAD_CAT_ID><ELEMENT_SET_NO>999</ELEMENT_SET_NO><REV_AT_EPOCH>42105</REV_AT_EPOCH><BSTAR>.53662943E-3</BSTAR><MEAN_MOTION_DOT>.1526E-4</MEAN_MOTION_DOT><MEAN_MOTION_DDOT>0</MEAN_MOTION_DDOT></tleParameters></data></segment></body></omm>
<omm id="CCSDS_OMM_VERS" version="2.0">
<header><CREATION_DATE/><ORIGINATOR/></header><body><segment><metadata><OBJECT_NAME>ORBCOMM FM14</OBJECT_NAME><OBJECT_ID>1998-046G</OBJECT_ID><CENTER_NAME>EARTH</CENTER_NAME><REF_FRAME>TEME</REF_FRAME><TIME_SYSTEM>UTC</TIME_SYSTEM><MEAN_ELEMENT_THEORY>SGP4</MEAN_ELEMENT_THEORY></metadata><data><meanElements><EPOCH>2025-10-12T03:41:57.275232</EPOCH><MEAN_MOTION>14.39289172</MEAN_MOTION><ECCENTRICITY>.00039197</ECCENTRICITY><INCLINATION>44.9969</INCLINATION><RA_OF_ASC_NODE>340.6452</RA_OF_ASC_NODE><ARG_OF_PERICENTER>200.1488</ARG_OF_PERICENTER><MEAN_ANOMALY>159.9207</MEAN_ANOMALY></meanElements><tleParameters><EPHEMERIS_TYPE>0</EPHEMERIS_TYPE><CLASSIFICATION_TYPE>U</CLASSIFICATION_TYPE><NORAD_CAT_ID>25419</NORAD_CAT_ID><ELEMENT_SET_NO>999</ELEMENT_SET_NO><REV_AT_EPOCH>42106</REV_AT_EPOCH><BSTAR>.5372221E-3</BSTAR><MEAN_MOTION_DOT>.1541E-4</MEAN_MOTION_DOT><MEAN_MOTION_DDOT>0</MEAN_MOTION_DDOT></tleParameters></data></segment></body></omm>
<omm id="CCSDS_OMM_VERS" version="2.0">
<header><CREATION_DATE/><ORIGINATOR/></header><body><segment><metadata><OBJECT_NAME>ORBCOMM FM13</OBJECT_NAME><OBJECT_ID>1998-046H</OBJECT_ID><CENTER_NAME>EARTH</CENTER_NAME><REF_FRAME>TEME</REF_FRAME><TIME_SYSTEM>UTC</TIME_SYSTEM><MEAN_ELEMENT_THEORY>SGP4</MEAN_ELEMENT_THEORY></metadata><data><meanElements><EPOCH>2025-10-12T05:35:26.599200</EPOCH><MEAN_MOTION>14.37972267</MEAN_MOTION><ECCENTRICITY>.00052753</ECCENTRICITY><INCLINATION>44.9989</INCLINATION><RA_OF_ASC_NODE>349.4093</RA_OF_ASC_NODE><ARG_OF_PERICENTER>171.1902</ARG_OF_PERICENTER><MEAN_ANOMALY>188.9040</MEAN_ANOMALY></meanElements><tleParameters><EPHEMERIS_TYPE>0</EPHEMERIS_TYPE><CLASSIFICATION_TYPE>U</CLASSIFICATION_TYPE><NORAD_CAT_ID>25420</NORAD_CAT_ID><ELEMENT_SET_NO>999</ELEMENT_SET_NO><REV_AT_EPOCH>42008</REV_AT_EPOCH><BSTAR>.52230062E-3</BSTAR><MEAN_MOTION_DOT>.1452E-4</MEAN_MOTION_DOT><MEAN_MOTION_DDOT>0</MEAN_MOTION_DDOT></tleParameters></data></segment></body></omm>
<omm id="CCSDS_OMM_VERS" version="2.0">
<header><CREATION_DATE/><ORIGINATOR/></header><body><segment><metadata><OBJECT_NAME>ORBCOMM FM21</OBJECT_NAME><OBJECT_ID>1998-053A</OBJECT_ID><CENTER_NAME>EARTH</CENTER_NAME><REF_FRAME>TEME</REF_FRAME><TIME_SYSTEM>UTC</TIME_SYSTEM><MEAN_ELEMENT_THEORY>SGP4</MEAN_ELEMENT_THEORY></metadata><data><meanElements><EPOCH>2025-10-11T20:24:10.800000</EPOCH><MEAN_MOTION>14.37597591</MEAN_MOTION><ECCENTRICITY>.00019104</ECCENTRICITY><INCLINATION>45.0079</INCLINATION><RA_OF_ASC_NODE>76.9271</RA_OF_ASC_NODE><ARG_OF_PERICENTER>122.7119</ARG_OF_PERICENTER><MEAN_ANOMALY>237.3914</MEAN_ANOMALY></meanElements><tleParameters><EPHEMERIS_TYPE>0</EPHEMERIS_TYPE><CLASSIFICATION_TYPE>U</CLASSIFICATION_TYPE><NORAD_CAT_ID>25475</NORAD_CAT_ID><ELEMENT_SET_NO>999</ELEMENT_SET_NO><REV_AT_EPOCH>41403</REV_AT_EPOCH><BSTAR>.45835732E-3</BSTAR><MEAN_MOTION_DOT>.1246E-4</MEAN_MOTION_DOT><MEAN_MOTION_DDOT>0</MEAN_MOTION_DDOT></tleParameters></data></segment></body></omm>
<omm id="CCSDS_OMM_VERS" version="2.0">
<header><CREATION_DATE/><ORIGINATOR/></header><body><segment><metadata><OBJECT_NAME>ORBCOMM FM22</OBJECT_NAME><OBJECT_ID>1998-053B</OBJECT_ID><CENTER_NAME>EARTH</CENTER_NAME><REF_FRAME>TEME</REF_FRAME><TIME_SYSTEM>UTC</TIME_SYSTEM><MEAN_ELEMENT_THEORY>SGP4</MEAN_ELEMENT_THEORY></metadata><data><meanElements><EPOCH>2025-10-11T19:12:33.233760</EPOCH><MEAN_MOTION>14.38715765</MEAN_MOTION><ECCENTRICITY>.0003474</ECCENTRICITY><INCLINATION>45.0076</INCLINATION><RA_OF_ASC_NODE>71.0496</RA_OF_ASC_NODE><ARG_OF_PERICENTER>111.0175</ARG_OF_PERICENTER><MEAN_ANOMALY>249.1045</MEAN_ANOMALY></meanElements><tleParameters><EPHEMERIS_TYPE>0</EPHEMERIS_TYPE><CLASSIFICATION_TYPE>U</CLASSIFICATION_TYPE><NORAD_CAT_ID>25476</NORAD_CAT_ID><ELEMENT_SET_NO>999</ELEMENT_SET_NO><REV_AT_EPOCH>41406</REV_AT_EPOCH><BSTAR>.6091825E-3</BSTAR><MEAN_MOTION_DOT>.1745E-4</MEAN_MOTION_DOT><MEAN_MOTION_DDOT>0</MEAN_MOTION_DDOT></tleParameters></data></segment></body></omm>
<omm id="CCSDS_OMM_VERS" version="2.0">
<header><CREATION_DATE/><ORIGINATOR/></header><body><segment><metadata><OBJECT_NAME>ORBCOMM FM23</OBJECT_NAME><OBJECT_ID>1998-053C</OBJECT_ID><CENTER_NAME>EARTH</CENTER_NAME><REF_FRAME>TEME</REF_FRAME><TIME_SYSTEM>UTC</TIME_SYSTEM><MEAN_ELEMENT_THEORY>SGP4</MEAN_ELEMENT_THEORY></metadata><data><meanElements><EPOCH>2025-10-12T02:42:41.768352</EPOCH><MEAN_MOTION>14.37813388</MEAN_MOTION><ECCENTRICITY>.00027536</ECCENTRICITY><INCLINATION>45.0080</INCLINATION><RA_OF_ASC_NODE>77.6298</RA_OF_ASC_NODE><ARG_OF_PERICENTER>109.0690</ARG_OF_PERICENTER><MEAN_ANOMALY>251.0457</MEAN_ANOMALY></meanElements><tleParameters><EPHEMERIS_TYPE>0</EPHEMERIS_TYPE><CLASSIFICATION_TYPE>U</CLASSIFICATION_TYPE><NORAD_CAT_ID>25477</NORAD_CAT_ID><ELEMENT_SET_NO>999</ELEMENT_SET_NO><REV_AT_EPOCH>41422</REV_AT_EPOCH><BSTAR>.52977355E-3</BSTAR><MEAN_MOTION_DOT>.1469E-4</MEAN_MOTION_DOT><MEAN_MOTION_DDOT>0</MEAN_MOTION_DDOT></tleParameters></data></segment></body></omm>

</ndm>
