ORBCOMM FM20            
1 25416U 98046D   25285.23739851  .00001275  00000+0  46916-3 0  9998
2 25416  44.9956 346.8589 0002467 224.5581 135.5069 14.37468124421103
ORBCOMM FM16            
1 25417U 98046E   25285.30000421  .00001588  00000+0  55236-3 0  9993
2 25417  44.9949 336.5626 0005348 195.6181 164.4504 14.39263940421127
ORBCOMM FM15            
1 25418U 98046F   25284.88884278  .00001526  00000+0  53663-3 0  9990
2 25418  44.9983 344.0132 0005096 193.9719 166.0989 14.38896343421055
ORBCOMM FM14            
1 25419U 98046G   25285.15413513  .00001541  00000+0  53722-3 0  9995
2 25419  44.9969 340.6452 0003919 200.1488 159.9207 14.39289172421065
ORBCOMM FM13            
1 25420U 98046H   25285.23294675  .00001452  00000+0  52230-3 0  9996
2 25420  44.9989 349.4093 0005275 171.1902 188.9040 14.37972267420082
ORBCOMM FM21            
1 25475U 98053A   25284.85012500  .00001246  00000+0  45836-3 0  9991
2 25475  45.0079  76.9271 0001910 122.7119 237.3914 14.37597591414038
ORBCOMM FM22            
1 25476U 98053B   25284.80038465  .00001745  00000+0  60918-3 0  9997
2 25476  45.0076  71.0496 0003474 111.0175 249.1045 14.38715765414066
ORBCOMM FM23            
1 25477U 98053C   25285.11298343  .00001469  00000+0  52977-3 0  9995
2 25477  45.0080  77.6298 0002753 109.0690 251.0457 14.37813388414228
